SL-8 R/B                
1 11574U 79089B   26068.53742881  .00000359  00000+0  11655-3 0  9998
2 11574  74.0668  91.3256 0017164 264.0643  95.8558 14.42350739436080
SL-14 R/B               
1 11672U 80005B   26068.72766576  .00000685  00000+0  66729-4 0  9990
2 11672  82.5144 307.2004 0016193 158.1149 202.0766 14.90930453476499
SL-8 R/B                
1 12139U 81003B   26068.66962247  .00021105  00000+0  54116-3 0  9990
2 12139  82.9386 290.0424 0262185 178.7086 181.4887 15.10973620314678
SL-3 R/B                
1 12465U 81046B   26068.84935556  .00013710  00000+0  31863-3 0  9999
2 12465  81.2298 289.5524 0019558  21.7604 338.4465 15.42000884438452
SL-3 R/B                
1 12904U 81103B   26068.83806457  .00006277  00000+0  27837-3 0  9993
2 12904  81.1587 213.2579 0012431 286.3601  73.6263 15.21378384973259
SL-3 R/B                
1 13068U 82013B   26068.84607267  .00005608  00000+0  24270-3 0  9990
2 13068  81.1762 160.5873 0022655 176.9824 183.1549 15.22020581404377
SL-3 R/B                
1 13154U 82039B   26068.85559923  .00003393  00000+0  20491-3 0  9990
2 13154  81.1584 215.7706 0029710 323.9285  35.9935 15.10082703381667
SL-3 R/B                
1 13403U 82079B   26068.79813119  .00008223  00000+0  32750-3 0  9992
2 13403  81.1481 192.9488 0025044 164.5089 195.6917 15.24803216377710
SL-14 R/B               
1 13553U 82092B   26068.72128645  .00000569  00000+0  61218-4 0  9996
2 13553  82.5695 141.3700 0019004 303.4428 173.5553 14.86666375328934
SL-3 R/B                
1 13819U 83010B   26068.89040061  .00019461  00000+0  39061-3 0  9996
2 13819  81.1060   2.0014 0017954  50.5381 309.7449 15.46365595357971
SL-3 R/B                
1 14208U 83075B   26068.81719053  .00013233  00000+0  34896-3 0  9998
2 14208  97.6147  73.3991 0020136 225.3907 134.5696 15.38421510330171
COSMOS 1536             
1 14699U 84013A   26068.52292051  .00007251  00000+0  29910-3 0  9991
2 14699  82.5428 108.0163 0012473 284.1309  75.8542 15.23821576272599
SL-14 R/B               
1 14820U 84027B   26068.82782051  .00000647  00000+0  71145-4 0  9999
2 14820  82.5387 244.8830 0017332 337.3800  22.6651 14.85976583247651
SL-8 R/B                
1 15483U 85006B   26068.87466642  .00000359  00000+0  12763-3 0  9993
2 15483  74.0433 260.8081 0018456 178.6171 283.6883 14.37782990154057
SL-12 R/B(2)            
1 15772U 85042D   26068.50087354  .00000038  00000+0  38313-4 0  9997
2 15772  71.1062  88.1277 0033255 128.4726  23.4074 14.21982311114369
SL-14 R/B               
1 15945U 85069B   26068.87987958  .00000717  00000+0  78191-4 0  9999
2 15945  82.5285  24.7540 0018487 187.0505 173.0455 14.86433417172862
SL-16 R/B               
1 16182U 85097B   26068.64308389 -.00000195  00000+0 -73507-4 0  9992
2 16182  71.0028 140.6527 0009922 259.8779 209.8797 14.16598844 87223
